135P/Shoemaker-Levy,e,6.0618,213.0311,22.2895,3.803359,0.1328780,0.29532996,311.6046,04/08.0/2021,2000,g  7.0,8.0
# From MPEC 2020-W26
136P/Mueller,e,9.4244,137.4484,224.8959,4.193739,0.1147630,0.29267768,203.3039,04/08.0/2021,2000,g 11.0,4.0
# From MPEC 2021-F20
137P/Shoemaker-Levy,e,4.8537,233.0376,141.0279,4.520563,0.1025452,0.57346304,86.7861,04/08.0/2021,2000,g 11.0,4.0
# From MPEC 2016-U66
138P/Shoemaker-Levy,e,10.0910,309.3313,95.5483,3.622346,0.1429616,0.53046278,100.9534,04/08.0/2021,2000,g 15.0,6.0
# From MPEC 2020-HN5
139P/Vaisala-Oterma,e,2.3338,242.1769,165.7317,4.522949,0.1024641,0.24669996,124.5423,04/08.0/2021,2000,g  9.5,4.0
# From MPEC 2015-E14
140P/Bowell-Skiff,e,3.8327,343.2841,172.8822,6.430747,0.0604383,0.69143015,125.2506,04/08.0/2021,2000,g 11.5,6.0
# From MPEC 2021-AJ0
141P/Machholz,e,13.9449,241.8474,153.5474,3.057161,0.1843854,0.73572653,20.7836,04/08.0/2021,2000,g 14.7,4.0
# From MPC 71683
142P/Ge-Wang,e,12.2494,175.9335,173.9557,5.004610,0.0880336,0.49785195,356.9519,04/08.0/2021,2000,g  9.0,4.0
# From MPEC 2021-BE3
143P/Kowal-Mrkos,e,4.6976,245.2361,320.4151,4.283092,0.1111906,0.41070273,118.8093,04/08.0/2021,2000,g 13.5,2.0
# From MPC104795
144P/Kushida,e,3.9450,243.3683,216.2202,3.817768,0.1321265,0.63655810,224.8902,04/08.0/2021,2000,g  8.5,8.0
# From MPC108598
145P/Shoemaker-Levy,e,11.2714,26.7877,10.2449,4.138848,0.1170536,0.54133511,153.9013,04/08.0/2021,2000,g 13.5,4.0
# From MPC100284
146P/Shoemaker-LINEAR,e,23.0931,53.4028,316.9365,4.032480,0.1217154,0.64693375,212.0359,04/08.0/2021,2000,g 15.0,4.0
# From MPC 75720
147P/Kushida-Muramatsu,e,2.3411,93.1176,350.1900,3.985568,0.1238708,0.23199129,239.3058,04/08.0/2021,2000,g 14.0,4.0
# From MPEC 2014-R70
148P/Anderson-LINEAR,e,3.6596,89.2979,7.7310,3.627337,0.1426666,0.55011842,298.4617,04/08.0/2021,2000,g  9.0,4.0
# From MPC 75720
149P/Mueller,e,30.3420,144.8485,44.7581,4.344874,0.1088274,0.39427979,84.4368,04/08.0/2021,2000,g  8.0,8.0
# From MPC 75720
150P/LONEOS,e,18.5064,272.3895,245.5549,3.879734,0.1289737,0.54690744,221.8483,04/08.0/2021,2000,g 13.5,4.0
# From MPEC 2015-Q71
151P/Helin,e,4.7283,143.1556,216.0469,5.763776,0.0712268,0.57340087,142.9274,04/08.0/2021,2000,g 10.0,6.0
# From MPEC 2021-FB5
152P/Helin-Lawrence,e,9.8798,91.8627,163.8934,4.478613,0.1039893,0.30890372,330.8359,04/08.0/2021,2000,g 11.5,4.0
# From MPC 46101
153P/Ikeya-Zhang,e,27.7924,93.1281,35.1248,50.69518,0.0027306,0.98962477,0.0000,03/06.9226/2002,2000,g  9.0,4.0
# From MPC 87068
154P/Brewington,e,17.6324,343.0335,47.8374,4.803045,0.0936330,0.67554512,251.0865,04/08.0/2021,2000,g  2.5,12.0
# From MPEC 2020-SI8
155P/Shoemaker,e,6.3962,97.1945,14.6305,6.579755,0.0583969,0.72623540,29.7870,04/08.0/2021,2000,g 10.0,4.8
# From MPEC 2021-FB5
156P/Russell-LINEAR,e,17.2622,35.3667,0.4342,3.460665,0.1530963,0.61480610,21.6049,04/08.0/2021,2000,g 15.5,2.0
# From MPC104795
157P/Tritton,e,12.5026,287.7809,154.8735,3.550282,0.1473363,0.55905293,283.5676,04/08.0/2021,2000,g 10.0,4.0
# From MPEC 2016-K18
158P/Kowal-LINEAR,e,8.0113,135.5311,172.8371,4.955615,0.0893424,0.03158247,356.4169,04/08.0/2021,2000,g  9.0,4.0
# From MPEC 2021-F20
159P/LONEOS,e,23.4644,54.9863,4.5815,5.854670,0.0695746,0.38167188,73.1972,04/08.0/2021,2000,g 10.0,4.0
# From MPEC 2021-F20
160P/LINEAR,e,15.6167,333.3602,12.6982,3.773990,0.1344321,0.52629322,66.2224,04/08.0/2021,2000,g 15.5,2.0
# From MPC 75721
161P/Hartley-IRAS,e,95.7766,1.5296,46.9423,7.725395,0.0459011,0.83471735,265.4006,04/08.0/2021,2000,g  8.5,6.0
# From MPEC 2021-FB5
162P/Siding Spring,e,27.5544,30.9096,357.1395,3.090864,0.1813778,0.58291525,21.9783,04/08.0/2021,2000,g 12.0,4.0
# From MPEC 2020-HN5
163P/NEAT,e,12.7082,102.0877,349.6214,3.768016,0.1347519,0.45184162,82.4617,04/08.0/2021,2000,g 14.5,4.0
# From MPEC 2021-F20
164P/Christensen,e,16.2552,88.2936,325.8370,3.656986,0.1409351,0.53996772,146.9451,04/08.0/2021,2000,g 11.0,4.0
# From MPC 75721
165P/LINEAR,e,15.8967,0.8222,126.0646,17.88476,0.0130310,0.61485135,99.4663,04/08.0/2021,2000,g 11.5,2.0
# From MPC 75722
166P/NEAT,e,15.3674,64.4569,321.4471,13.82174,0.0191805,0.38318061,132.4320,04/08.0/2021,2000,g  5.5,4.0
# From MPC 75722
167P/CINEOS,e,19.1204,295.6585,344.4459,16.20919,0.0151030,0.27232937,109.8274,04/08.0/2021,2000,g  9.5,2.0
# From MPC102101
168P/Hergenrother,e,21.6189,355.4540,14.9966,3.582235,0.1453694,0.62087314,88.9244,04/08.0/2021,2000,g 15.5,4.0
# From MPEC 2021-F20
169P/NEAT,e,11.2982,176.1020,218.0517,2.601307,0.2349182,0.76814776,252.4658,04/08.0/2021,2000,g 16.0,2.0
# From MPC 89012
170P/Christensen,e,10.1250,142.9222,225.6168,4.198500,0.1145679,0.30372264,274.8466,04/08.0/2021,2000,g 12.0,4.0
# From MPC102102
171P/Spahr,e,21.9342,101.6955,347.0891,3.555598,0.1470060,0.50158274,119.9018,04/08.0/2021,2000,g 13.5,4.0
# From MPEC 2021-BE3
172P/Yeung,e,11.2292,30.8935,209.4147,4.212529,0.1139960,0.20559413,169.5022,04/08.0/2021,2000,g 13.0,4.0
# From MPEC 2021-FB5
173P/Mueller,e,16.4955,100.4029,29.2405,5.704051,0.0723484,0.26073044,341.6804,04/08.0/2021,2000,g  7.5,4.0
# From MPC 92985
174P/Echeclus,e,4.3432,173.2274,163.0570,10.71594,0.0280969,0.45737714,61.1175,04/08.0/2021,2000,g  9.4,2.0
# From MPC114608
175P/Hergenrother,e,6.0789,123.5185,56.6593,3.443229,0.1542606,0.43385113,85.3772,04/08.0/2021,2000,g 14.0,4.0
# From MPC 89015
176P/LINEAR,e,0.2348,345.8899,35.0458,3.193697,0.1726885,0.19305381,257.3323,04/08.0/2021,2000,g 15.1,2.0
# From MPEC 2020-L06
177P/Barnard,e,31.2915,272.2706,60.2240,24.41377,0.0081706,0.95528354,43.5645,04/08.0/2021,2000,g 15.0,4.0
# From MPEC 2021-FB5
178P/Hug-Bell,e,11.0890,102.8741,297.7914,3.631790,0.1424043,0.48200858,37.7887,04/08.0/2021,2000,g 13.5,4.0
# From MPC 75723
179P/Jedicke,e,19.8984,115.5231,296.7421,5.936633,0.0681387,0.30614818,331.6486,04/08.0/2021,2000,g  2.5,8.0
# From MPC100284
180P/NEAT,e,16.8666,84.5658,94.8212,3.862709,0.1298273,0.35307185,252.7966,04/08.0/2021,2000,g 11.0,4.0
# From MPC 89012
181P/Shoemaker-Levy,e,17.4866,35.4118,336.2438,3.872340,0.1293433,0.70052843,324.3302,04/08.0/2021,2000,g 11.5,4.0
# From MPEC 2014-J10
182P/LONEOS,e,16.2231,72.5413,54.0786,2.953345,0.1941926,0.66293889,282.4614,04/08.0/2021,2000,g 18.0,4.0
# From MPC110085
183P/Korlevic-Juric,e,18.7476,4.7204,165.7931,4.535447,0.1020408,0.13741246,124.6817,04/08.0/2021,2000,g 12.5,2.0
# From MPEC 2020-W26
184P/Lovas,e,4.5732,173.2536,186.4464,3.793201,0.1334121,0.55095102,21.8526,04/08.0/2021,2000,g 13.5,4.0
# From MPC109593
185P/Petriew,e,14.0049,214.0974,181.8750,3.099011,0.1806631,0.69918633,210.7362,04/08.0/2021,2000,g 15.0,4.0
# From MPEC 2020-W26
186P/Garradd,e,28.8178,326.6339,280.1089,4.967618,0.0890188,0.12215878,65.7912,04/08.0/2021,2000,g  7.5,4.0
# From MPEC 2020-SI8
187P/LINEAR,e,13.6344,109.9206,131.9188,4.570212,0.1008787,0.15212105,106.7435,04/08.0/2021,2000,g  9.0,4.0
# From MPC106349
188P/LINEAR-Mueller,e,10.5238,358.9604,26.5648,4.374542,0.1077222,0.41574174,162.7047,04/08.0/2021,2000,g 11.5,4.0
# From MPC106349
189P/NEAT,e,20.0708,281.7343,16.2814,2.946762,0.1948438,0.58876067,261.0627,04/08.0/2021,2000,g 19.0,4.0
# From MPEC 2020-K19
190P/Mueller,e,2.1743,335.5793,50.2751,4.234387,0.1131145,0.52129751,206.5381,04/08.0/2021,2000,g 13.0,4.0
# From MPEC 2021-BE3
191P/McNaught,e,8.8428,98.2320,284.0064,3.634137,0.1422664,0.38577957,2.6880,04/08.0/2021,2000,g 13.0,4.0
# From MPC 75724
192P/Shoemaker-Levy,e,24.5535,51.6250,312.9523,6.476834,0.0597943,0.77315611,291.6829,04/08.0/2021,2000,g 15.0,4.0
# From MPC 92277
193P/LINEAR-NEAT,e,10.6877,335.1768,8.1564,3.579354,0.1455449,0.39436048,339.7087,04/08.0/2021,2000,g 14.0,4.0
# From MPC 98566
194P/LINEAR,e,11.3368,350.9939,131.2002,3.981557,0.1240580,0.58157225,231.4338,04/08.0/2021,2000,g 16.0,4.0
# From MPC 75724
195P/Hill,e,36.3360,243.1167,249.3432,6.502208,0.0594446,0.31329249,266.5072,04/08.0/2021,2000,g  8.5,4.0
# From MPC 92985
196P/Tichy,e,19.2940,24.1756,12.2402,3.800762,0.1330142,0.42853607,284.1888,04/08.0/2021,2000,g 13.5,4.0
# From MPC 94676
197P/LINEAR,e,25.5374,66.3866,188.7471,2.867648,0.2029622,0.62965271,236.4774,04/08.0/2021,2000,g 16.5,2.0
# From NK 1596
198P/ODAS,e,1.3387,358.2532,69.2045,3.599094,0.1443492,0.44331619,122.1529,04/08.0/2021,2000,g  9.0,4.0
# From MPC 75725
199P/Shoemaker,e,24.9327,92.3854,191.6511,5.894353,0.0688731,0.50604723,301.3325,04/08.0/2021,2000,g 10.0,4.0
# From MPEC 2021-F20
200P/Larsen,e,12.1011,234.7946,134.0735,4.940497,0.0897528,0.33251330,55.5507,04/08.0/2021,2000,g  9.0,4.0
# From MPC 93588
201P/LONEOS,e,5.7390,19.7492,41.5417,3.353461,0.1604960,0.63697827,352.1883,04/08.0/2021,2000,g 14.0,4.0
# From MPC103849
202P/Scotti,e,2.0669,178.6465,277.3189,4.043611,0.1212132,0.27011993,221.7828,04/08.0/2021,2000,g 13.5,4.0
# From MPEC 2021-FB5
203P/Korlevic,e,2.9730,290.3459,154.8229,4.671207,0.0976248,0.31512337,38.9732,04/08.0/2021,2000,g 14.5,2.0
# From MPC 98566
204P/LINEAR-NEAT,e,6.6130,108.7035,355.8793,3.601418,0.1442095,0.48774166,275.3527,04/08.0/2021,2000,g 14.0,4.0
# From MPC 98566
205P/Giacobini,e,15.3044,179.6047,154.2081,3.542220,0.1478396,0.56801101,318.5399,04/08.0/2021,2000,g 13.0,4.0
# From MPC 75725
206P/Barnard-Boattini,e,33.6336,202.3467,189.4700,3.487389,0.1513399,0.55131466,5.2220,04/08.0/2021,2000,g 19.0,4.0
# From MPC 75725
207P/NEAT,e,10.1742,198.5959,272.8125,3.868375,0.1295422,0.75969387,226.6868,04/08.0/2021,2000,g 16.0,4.0
# From MPEC 2020-W26
208P/McMillan,e,4.4104,36.3492,310.4377,4.045795,0.1211151,0.37374629,210.6239,04/08.0/2021,2000,g 12.5,4.0
# From MPC 90771
209P/LINEAR,e,21.2567,62.7716,152.4713,2.960033,0.1935349,0.67309692,128.7744,04/08.0/2021,2000,g 17.0,2.0
# From MPC105242
210P/Christensen,e,10.2622,93.8329,345.9001,3.164622,0.1750739,0.83319148,63.9187,04/08.0/2021,2000,g 13.5,4.0
# From MPC 96868
211P/Hill,e,18.9215,117.1370,4.2205,3.546632,0.1475638,0.34327204,279.6383,04/08.0/2021,2000,g 12.5,4.0
# From MPEC 2021-F20
212P/NEAT,e,22.3119,98.4025,14.0870,3.885173,0.1287029,0.58879837,216.6749,04/08.0/2021,2000,g 17.0,2.0
# From MPC114608
